{
  "type": "FeatureCollection",
  "features": [
    {
      "type": "Feature",
      "properties": {
        "norad_id": 57400,
        "name": "TIANMU-1 08",
        "group": "weather",
        "lat": 32.08158815023783,
        "lon": 22.462605714552275,
        "alt_km": 479.44146211048155,
        "timestamp": "2025-12-03T04:52:29.284305+00:00",
        "meta_object_name": "TIANMU-1 08",
        "meta_object_id": "2023-101B",
        "meta_epoch": "2025-12-02T20:52:27.111072",
        "meta_mean_motion": 15.27828627,
        "meta_eccentricity": 0.0007448,
        "meta_inclination": 97.2886,
        "meta_ra_of_asc_node": 26.7385,
        "meta_arg_of_pericenter": 111.601,
        "meta_mean_anomaly": 248.6024,
        "meta_ephemeris_type": 0,
        "meta_classification_type": "U",
        "meta_norad_cat_id": 57400,
        "meta_element_set_no": 999,
        "meta_rev_at_epoch": 13164,
        "meta_bstar": 0.00036264,
        "meta_mean_motion_dot": 9.793e-05,
        "meta_mean_motion_ddot": 0,
        "tle_line1": "1 57400U 23101B   25336.86975823  .00009793  00000+0  36264-3 0  9991",
        "tle_line2": "2 57400  97.2886  26.7385 0007448 111.6010 248.6024 15.27828627131641"
      },
      "geometry": {
        "type": "Point",
        "coordinates": [
          22.462605714552275,
          32.08158815023783
        ]
      }
    },
    {
      "type": "Feature",
      "properties": {
        "norad_id": 57401,
        "name": "TIANMU-1 09",
        "group": "weather",
        "lat": 73.95463422098892,
        "lon": -127.00895478008961,
        "alt_km": 470.57362163853577,
        "timestamp": "2025-12-03T04:52:29.284340+00:00",
        "meta_object_name": "TIANMU-1 09",
        "meta_object_id": "2023-101C",
        "meta_epoch": "2025-12-02T20:33:39.515904",
        "meta_mean_motion": 15.27849849,
        "meta_eccentricity": 0.0006733,
        "meta_inclination": 97.2843,
        "meta_ra_of_asc_node": 26.2445,
        "meta_arg_of_pericenter": 110.708,
        "meta_mean_anomaly": 249.4881,
        "meta_ephemeris_type": 0,
        "meta_classification_type": "U",
        "meta_norad_cat_id": 57401,
        "meta_element_set_no": 999,
        "meta_rev_at_epoch": 13164,
        "meta_bstar": 0.00036327,
        "meta_mean_motion_dot": 9.815e-05,
        "meta_mean_motion_ddot": 0,
        "tle_line1": "1 57401U 23101C   25336.85670736  .00009815  00000+0  36327-3 0  9991",
        "tle_line2": "2 57401  97.2843  26.2445 0006733 110.7080 249.4881 15.27849849131649"
      },
      "geometry": {
        "type": "Point",
        "coordinates": [
          -127.00895478008961,
          73.95463422098892
        ]
      }
    },
    {
      "type": "Feature",
      "properties": {
        "norad_id": 57402,
        "name": "TIANMU-1 10",
        "group": "weather",
        "lat": -80.20147988194802,
        "lon": 75.2804806422748,
        "alt_km": 495.2484999339031,
        "timestamp": "2025-12-03T04:52:29.284352+00:00",
        "meta_object_name": "TIANMU-1 10",
        "meta_object_id": "2023-101D",
        "meta_epoch": "2025-12-02T21:22:51.013344",
        "meta_mean_motion": 15.2784164,
        "meta_eccentricity": 0.0008473,
        "meta_inclination": 97.2923,
        "meta_ra_of_asc_node": 27.1173,
        "meta_arg_of_pericenter": 111.924,
        "meta_mean_anomaly": 248.2901,
        "meta_ephemeris_type": 0,
        "meta_classification_type": "U",
        "meta_norad_cat_id": 57402,
        "meta_element_set_no": 999,
        "meta_rev_at_epoch": 13164,
        "meta_bstar": 0.00039779,
        "meta_mean_motion_dot": 0.00010757,
        "meta_mean_motion_ddot": 0,
        "tle_line1": "1 57402U 23101D   25336.89086821  .00010757  00000+0  39779-3 0  9993",
        "tle_line2": "2 57402  97.2923  27.1173 0008473 111.9240 248.2901 15.27841640131642"
      },
      "geometry": {
        "type": "Point",
        "coordinates": [
          75.2804806422748,
          -80.20147988194802
        ]
      }
    },
    {
      "type": "Feature",
      "properties": {
        "norad_id": 57490,
        "name": "FENGYUN 3F",
        "group": "weather",
        "lat": -76.60596053814255,
        "lon": 85.72139318709178,
        "alt_km": 833.5188311472984,
        "timestamp": "2025-12-03T04:52:29.284365+00:00",
        "meta_object_name": "FENGYUN 3F",
        "meta_object_id": "2023-111A",
        "meta_epoch": "2025-12-02T20:47:38.344128",
        "meta_mean_motion": 14.19889236,
        "meta_eccentricity": 7e-05,
        "meta_inclination": 98.7096,
        "meta_ra_of_asc_node": 45.3186,
        "meta_arg_of_pericenter": 85.1009,
        "meta_mean_anomaly": 275.0247,
        "meta_ephemeris_type": 0,
        "meta_classification_type": "U",
        "meta_norad_cat_id": 57490,
        "meta_element_set_no": 999,
        "meta_rev_at_epoch": 12100,
        "meta_bstar": 8.309e-05,
        "meta_mean_motion_dot": 1.33e-06,
        "meta_mean_motion_ddot": 0,
        "tle_line1": "1 57490U 23111A   25336.86641602  .00000133  00000+0  83090-4 0  9995",
        "tle_line2": "2 57490  98.7096  45.3186 0000700  85.1009 275.0247 14.19889236121005"
      },
      "geometry": {
        "type": "Point",
        "coordinates": [
          85.72139318709178,
          -76.60596053814255
        ]
      }
    },
    {
      "type": "Feature",
      "properties": {
        "norad_id": 58584,
        "name": "ARKTIKA-M 2",
        "group": "weather",
        "lat": 54.88684968214053,
        "lon": -49.994793788853904,
        "alt_km": 30560.164451813846,
        "timestamp": "2025-12-03T04:52:29.284378+00:00",
        "meta_object_name": "ARKTIKA-M 2",
        "meta_object_id": "2023-198A",
        "meta_epoch": "2025-12-01T08:43:04.634112",
        "meta_mean_motion": 2.00605427,
        "meta_eccentricity": 0.68640288,
        "meta_inclination": 63.2218,
        "meta_ra_of_asc_node": 176.1298,
        "meta_arg_of_pericenter": 268.1507,
        "meta_mean_anomaly": 18.8441,
        "meta_ephemeris_type": 0,
        "meta_classification_type": "U",
        "meta_norad_cat_id": 58584,
        "meta_element_set_no": 999,
        "meta_rev_at_epoch": 1435,
        "meta_bstar": 0,
        "meta_mean_motion_dot": 2.37e-06,
        "meta_mean_motion_ddot": 0,
        "tle_line1": "1 58584U 23198A   25335.36324808  .00000237  00000+0  00000+0 0  9995",
        "tle_line2": "2 58584  63.2218 176.1298 6864028 268.1507  18.8441  2.00605427 14356"
      },
      "geometry": {
        "type": "Point",
        "coordinates": [
          -49.994793788853904,
          54.88684968214053
        ]
      }
    },
    {
      "type": "Feature",
      "properties": {
        "norad_id": 58645,
        "name": "TIANMU-1 11",
        "group": "weather",
        "lat": -33.809016992970356,
        "lon": 172.0289410307554,
        "alt_km": 503.05637797230065,
        "timestamp": "2025-12-03T04:52:29.284390+00:00",
        "meta_object_name": "TIANMU-1 11",
        "meta_object_id": "2023-205A",
        "meta_epoch": "2025-12-02T20:03:41.058432",
        "meta_mean_motion": 15.24406682,
        "meta_eccentricity": 0.0008912,
        "meta_inclination": 97.3614,
        "meta_ra_of_asc_node": 356.6349,
        "meta_arg_of_pericenter": 349.1041,
        "meta_mean_anomaly": 11.0002,
        "meta_ephemeris_type": 0,
        "meta_classification_type": "U",
        "meta_norad_cat_id": 58645,
        "meta_element_set_no": 999,
        "meta_rev_at_epoch": 10758,
        "meta_bstar": 0.00032052,
        "meta_mean_motion_dot": 7.797e-05,
        "meta_mean_motion_ddot": 0,
        "tle_line1": "1 58645U 23205A   25336.83589188  .00007797  00000+0  32052-3 0  9993",
        "tle_line2": "2 58645  97.3614 356.6349 0008912 349.1041  11.0002 15.24406682107581"
      },
      "geometry": {
        "type": "Point",
        "coordinates": [
          172.0289410307554,
          -33.809016992970356
        ]
      }
    },
    {
      "type": "Feature",
      "properties": {
        "norad_id": 58646,
        "name": "TIANMU-1 12",
        "group": "weather",
        "lat": 68.59744355241574,
        "lon": -22.451998940979603,
        "alt_km": 486.6637184285537,
        "timestamp": "2025-12-03T04:52:29.284400+00:00",
        "meta_object_name": "TIANMU-1 12",
        "meta_object_id": "2023-205B",
        "meta_epoch": "2025-12-02T20:41:32.210304",
        "meta_mean_motion": 15.2432018,
        "meta_eccentricity": 0.0006698,
        "meta_inclination": 97.3602,
        "meta_ra_of_asc_node": 356.4694,
        "meta_arg_of_pericenter": 334.8765,
        "meta_mean_anomaly": 25.2145,
        "meta_ephemeris_type": 0,
        "meta_classification_type": "U",
        "meta_norad_cat_id": 58646,
        "meta_element_set_no": 999,
        "meta_rev_at_epoch": 10757,
        "meta_bstar": 0.00035644,
        "meta_mean_motion_dot": 8.653e-05,
        "meta_mean_motion_ddot": 0,
        "tle_line1": "1 58646U 23205B   25336.86217836  .00008653  00000+0  35644-3 0  9997",
        "tle_line2": "2 58646  97.3602 356.4694 0006698 334.8765  25.2145 15.24320180107575"
      },
      "geometry": {
        "type": "Point",
        "coordinates": [
          -22.451998940979603,
          68.59744355241574
        ]
      }
    }
  ]
}